{"type": "FeatureCollection", "features": [{"type": "Feature", "properties": {"norad_id": 28890, "name": "BEIJING 1", "group": "dmc", "lat": 63.143923540646036, "lon": 112.7515504137088, "alt_km": 666.632997294465, "timestamp": "2025-12-27T21:25:02.167075+00:00", "meta": {"OBJECT_NAME": "BEIJING 1", "OBJECT_ID": "2005-043A", "EPOCH": "2025-12-27T12:55:10.362432", "MEAN_MOTION": 14.6338054, "ECCENTRICITY": 0.0015885, "INCLINATION": 98.2662, "RA_OF_ASC_NODE": 129.0812, "ARG_OF_PERICENTER": 97.8845, "MEAN_ANOMALY": 262.4161, "EPHEMERIS_TYPE": 0, "CLASSIFICATION_TYPE": "U", "NORAD_CAT_ID": 28890, "ELEMENT_SET_NO": 999, "REV_AT_EPOCH": 7554, "BSTAR": 0.00014733, "MEAN_MOTION_DOT": 7.14e-06, "MEAN_MOTION_DDOT": 0}, "tle": {"line1": "1 28890U 05043A   25361.53831438  .00000714  00000+0  14733-3 0  9993", "line2": "2 28890  98.2662 129.0812 0015885  97.8845 262.4161 14.63380540 75540"}}, "geometry": {"type": "Point", "coordinates": [112.7515504137088, 63.143923540646036]}}, {"type": "Feature", "properties": {"norad_id": 33320, "name": "HUANJING 1A (HJ-1A)", "group": "dmc", "lat": 74.76493060593903, "lon": -160.8454530970242, "alt_km": 617.4312549979832, "timestamp": "2025-12-27T21:25:02.167103+00:00", "meta": {"OBJECT_NAME": "HUANJING 1A (HJ-1A)", "OBJECT_ID": "2008-041A", "EPOCH": "2025-12-27T12:51:36.740160", "MEAN_MOTION": 14.83442965, "ECCENTRICITY": 0.0018968, "INCLINATION": 97.6556, "RA_OF_ASC_NODE": 349.2173, "ARG_OF_PERICENTER": 347.0455, "MEAN_ANOMALY": 13.027, "EPHEMERIS_TYPE": 0, "CLASSIFICATION_TYPE": "U", "NORAD_CAT_ID": 33320, "ELEMENT_SET_NO": 999, "REV_AT_EPOCH": 93295, "BSTAR": 0.00029296, "MEAN_MOTION_DOT": 2.362e-05, "MEAN_MOTION_DDOT": 0}, "tle": {"line1": "1 33320U 08041A   25361.53584190  .00002362  00000+0  29296-3 0  9999", "line2": "2 33320  97.6556 349.2173 0018968 347.0455  13.0270 14.83442965932957"}}, "geometry": {"type": "Point", "coordinates": [-160.8454530970242, 74.76493060593903]}}, {"type": "Feature", "properties": {"norad_id": 33321, "name": "HUANJING 1B (HJ-1B)", "group": "dmc", "lat": -66.6082772344336, "lon": 11.297441978522121, "alt_km": 629.9376240940628, "timestamp": "2025-12-27T21:25:02.167118+00:00", "meta": {"OBJECT_NAME": "HUANJING 1B (HJ-1B)", "OBJECT_ID": "2008-041B", "EPOCH": "2025-12-27T13:37:27.381792", "MEAN_MOTION": 14.82861912, "ECCENTRICITY": 0.0037632, "INCLINATION": 97.6414, "RA_OF_ASC_NODE": 352.9057, "ARG_OF_PERICENTER": 28.686, "MEAN_ANOMALY": 331.6413, "EPHEMERIS_TYPE": 0, "CLASSIFICATION_TYPE": "U", "NORAD_CAT_ID": 33321, "ELEMENT_SET_NO": 999, "REV_AT_EPOCH": 93297, "BSTAR": 0.00019347, "MEAN_MOTION_DOT": 1.534e-05, "MEAN_MOTION_DDOT": 0}, "tle": {"line1": "1 33321U 08041B   25361.56767803  .00001534  00000+0  19347-3 0  9993", "line2": "2 33321  97.6414 352.9057 0037632  28.6860 331.6413 14.82861912932970"}}, "geometry": {"type": "Point", "coordinates": [11.297441978522121, -66.6082772344336]}}, {"type": "Feature", "properties": {"norad_id": 33446, "name": "YAOGAN-4", "group": "dmc", "lat": -17.001791004655356, "lon": 109.40477741440071, "alt_km": 622.9295365149928, "timestamp": "2025-12-27T21:25:02.167131+00:00", "meta": {"OBJECT_NAME": "YAOGAN-4", "OBJECT_ID": "2008-061A", "EPOCH": "2025-12-27T09:11:33.320256", "MEAN_MOTION": 14.82726039, "ECCENTRICITY": 0.0012973, "INCLINATION": 97.9199, "RA_OF_ASC_NODE": 291.3399, "ARG_OF_PERICENTER": 271.2097, "MEAN_ANOMALY": 88.763, "EPHEMERIS_TYPE": 0, "CLASSIFICATION_TYPE": "U", "NORAD_CAT_ID": 33446, "ELEMENT_SET_NO": 999, "REV_AT_EPOCH": 92020, "BSTAR": 0.00020996, "MEAN_MOTION_DOT": 1.643e-05, "MEAN_MOTION_DDOT": 0}, "tle": {"line1": "1 33446U 08061A   25361.38302454  .00001643  00000+0  20996-3 0  9993", "line2": "2 33446  97.9199 291.3399 0012973 271.2097  88.7630 14.82726039920209"}}, "geometry": {"type": "Point", "coordinates": [109.40477741440071, -17.001791004655356]}}, {"type": "Feature", "properties": {"norad_id": 35681, "name": "DEIMOS-1", "group": "dmc", "lat": -80.87680478354616, "lon": -75.80132662294984, "alt_km": 654.0334707048114, "timestamp": "2025-12-27T21:25:02.167143+00:00", "meta": {"OBJECT_NAME": "DEIMOS-1", "OBJECT_ID": "2009-041A", "EPOCH": "2025-12-27T12:04:41.441088", "MEAN_MOTION": 14.7497674, "ECCENTRICITY": 0.0002367, "INCLINATION": 97.7159, "RA_OF_ASC_NODE": 161.4202, "ARG_OF_PERICENTER": 57.2685, "MEAN_ANOMALY": 302.8753, "EPHEMERIS_TYPE": 0, "CLASSIFICATION_TYPE": "U", "NORAD_CAT_ID": 35681, "ELEMENT_SET_NO": 999, "REV_AT_EPOCH": 88157, "BSTAR": 0.00018419, "MEAN_MOTION_DOT": 1.191e-05, "MEAN_MOTION_DDOT": 0}, "tle": {"line1": "1 35681U 09041A   25361.50325742  .00001191  00000+0  18419-3 0  9999", "line2": "2 35681  97.7159 161.4202 0002367  57.2685 302.8753 14.74976740881576"}}, "geometry": {"type": "Point", "coordinates": [-75.80132662294984, -80.87680478354616]}}, {"type": "Feature", "properties": {"norad_id": 35683, "name": "UK-DMC 2", "group": "dmc", "lat": -42.531322358115276, "lon": 143.6459833838273, "alt_km": 650.4873114271868, "timestamp": "2025-12-27T21:25:02.167155+00:00", "meta": {"OBJECT_NAME": "UK-DMC 2", "OBJECT_ID": "2009-041C", "EPOCH": "2025-12-27T13:28:30.078336", "MEAN_MOTION": 14.75655884, "ECCENTRICITY": 0.000161, "INCLINATION": 97.8572, "RA_OF_ASC_NODE": 136.0468, "ARG_OF_PERICENTER": 91.4725, "MEAN_ANOMALY": 268.6669, "EPHEMERIS_TYPE": 0, "CLASSIFICATION_TYPE": "U", "NORAD_CAT_ID": 35683, "ELEMENT_SET_NO": 999, "REV_AT_EPOCH": 88125, "BSTAR": 0.00026403, "MEAN_MOTION_DOT": 1.754e-05, "MEAN_MOTION_DDOT": 0}, "tle": {"line1": "1 35683U 09041C   25361.56145924  .00001754  00000+0  26403-3 0  9996", "line2": "2 35683  97.8572 136.0468 0001610  91.4725 268.6669 14.75655884881259"}}, "geometry": {"type": "Point", "coordinates": [143.6459833838273, -42.531322358115276]}}, {"type": "Feature", "properties": {"norad_id": 40715, "name": "DMC3-FM1", "group": "dmc", "lat": -0.5263396828222182, "lon": 48.46107391481847, "alt_km": 614.5444026970408, "timestamp": "2025-12-27T21:25:02.167166+00:00", "meta": {"OBJECT_NAME": "DMC3-FM1", "OBJECT_ID": "2015-032A", "EPOCH": "2025-12-27T12:31:26.371200", "MEAN_MOTION": 14.85465338, "ECCENTRICITY": 0.0004072, "INCLINATION": 97.6679, "RA_OF_ASC_NODE": 228.1751, "ARG_OF_PERICENTER": 257.7701, "MEAN_ANOMALY": 102.3059, "EPHEMERIS_TYPE": 0, "CLASSIFICATION_TYPE": "U", "NORAD_CAT_ID": 40715, "ELEMENT_SET_NO": 999, "REV_AT_EPOCH": 56442, "BSTAR": 0.00012187, "MEAN_MOTION_DOT": 1e-05, "MEAN_MOTION_DDOT": 0}, "tle": {"line1": "1 40715U 15032A   25361.52183300  .00001000  00000+0  12187-3 0  9999", "line2": "2 40715  97.6679 228.1751 0004072 257.7701 102.3059 14.85465338564429"}}, "geometry": {"type": "Point", "coordinates": [48.46107391481847, -0.5263396828222182]}}, {"type": "Feature", "properties": {"norad_id": 40716, "name": "DMC3-FM2", "group": "dmc", "lat": 59.41539352977431, "lon": -143.19998874623718, "alt_km": 609.2453062812247, "timestamp": "2025-12-27T21:25:02.167177+00:00", "meta": {"OBJECT_NAME": "DMC3-FM2", "OBJECT_ID": "2015-032B", "EPOCH": "2025-12-27T13:03:48.239712", "MEAN_MOTION": 14.85469866, "ECCENTRICITY": 0.0004499, "INCLINATION": 97.6738, "RA_OF_ASC_NODE": 229.6513, "ARG_OF_PERICENTER": 265.5308, "MEAN_ANOMALY": 94.5393, "EPHEMERIS_TYPE": 0, "CLASSIFICATION_TYPE": "U", "NORAD_CAT_ID": 40716, "ELEMENT_SET_NO": 999, "REV_AT_EPOCH": 56442, "BSTAR": 0.00016803, "MEAN_MOTION_DOT": 1.398e-05, "MEAN_MOTION_DDOT": 0}, "tle": {"line1": "1 40716U 15032B   25361.54430833  .00001398  00000+0  16803-3 0  9997", "line2": "2 40716  97.6738 229.6513 0004499 265.5308  94.5393 14.85469866564424"}}, "geometry": {"type": "Point", "coordinates": [-143.19998874623718, 59.41539352977431]}}, {"type": "Feature", "properties": {"norad_id": 40717, "name": "DMC3-FM3", "group": "dmc", "lat": -55.260551562599666, "lon": -117.1502954284277, "alt_km": 617.0955177000951, "timestamp": "2025-12-27T21:25:02.167189+00:00", "meta": {"OBJECT_NAME": "DMC3-FM3", "OBJECT_ID": "2015-032C", "EPOCH": "2025-12-27T13:35:08.271744", "MEAN_MOTION": 14.85450576, "ECCENTRICITY": 0.0003897, "INCLINATION": 97.6792, "RA_OF_ASC_NODE": 231.3152, "ARG_OF_PERICENTER": 266.8038, "MEAN_ANOMALY": 93.2732, "EPHEMERIS_TYPE": 0, "CLASSIFICATION_TYPE": "U", "NORAD_CAT_ID": 40717, "ELEMENT_SET_NO": 999, "REV_AT_EPOCH": 56443, "BSTAR": 3.1639e-05, "MEAN_MOTION_DOT": 2.21e-06, "MEAN_MOTION_DDOT": 0}, "tle": {"line1": "1 40717U 15032C   25361.56606796  .00000221  00000+0  31639-4 0  9992", "line2": "2 40717  97.6792 231.3152 0003897 266.8038  93.2732 14.85450576564431"}}, "geometry": {"type": "Point", "coordinates": [-117.1502954284277, -55.260551562599666]}}]}